[
    {
        "Company": "Moroni",
        "Contact": "Thomson",
        "Phone": "201-888-1234",
        "Extension": "456",
        "Title": "Moroni",
        "Address1": "25 Wall Street",
        "Address2": "Fifth Avenue",
        "City": "New York City",
        "State": "NewYork",
        "ZipCode": 201010
    },
    {
        "Company": "DJango Consulting",
        "Contact": "Dan Minnick",
        "Phone": "201-888-4567",
        "Extension": "456",
        "Title": "Captain",
        "Address1": "1919 Tecoma Drive",
        "Address2": "",
        "City": "New York City",
        "State": "NewYork",
        "ZipCode": 201010
    },
    {
        "Company": "River Rat Tours",
        "Contact": "Rose Sayer",
        "Phone": "201-3333-1234",
        "Extension": "456",
        "Title": "Moroni",
        "Address1": "66 Flat Road",
        "Address2": "Suite 600",
        "City": "New York City",
        "State": "NewYork",
        "ZipCode": 201010
    },
    {
        "Company": "Boomes Artwork",
        "Contact": "Leonardo",
        "Phone": "201-888-1234",
        "Extension": "456",
        "Title": "Moroni",
        "Address1": "30 Wall Street",
        "Address2": "Seventh Avenue",
        "City": "New York City",
        "State": "NewYork",
        "ZipCode": 201010
    },
    {
        "Company": "Mercury Production",
        "Contact": "Thomson",
        "Phone": "201-888-1234",
        "Extension": "456",
        "Title": "Moroni",
        "Address1": "25 Wall Street",
        "Address2": "Fifth Avenue",
        "City": "New York City",
        "State": "NewYork",
        "ZipCode": 201010
    },
    {
        "Company": "Duke Industries",
        "Contact": "Peter",
        "Phone": "631-888-1234",
        "Extension": "456",
        "Title": "CEO",
        "Address1": "25 Wall Street",
        "Address2": "Fifth Avenue",
        "City": "New York City",
        "State": "NewYork",
        "ZipCode": 201010
    },
    {
        "Company": "Moroni",
        "Contact": "Thomson",
        "Phone": "201-888-1234",
        "Extension": "456",
        "Title": "Moroni",
        "Address1": "25 Wall Street",
        "Address2": "Fifth Avenue",
        "City": "New York City",
        "State": "NewYork",
        "ZipCode": 201010
    },
    {
        "Company": "Moroni",
        "Contact": "Thomson",
        "Phone": "201-888-1234",
        "Extension": "456",
        "Title": "Moroni",
        "Address1": "25 Wall Street",
        "Address2": "Fifth Avenue",
        "City": "New York City",
        "State": "NewYork",
        "ZipCode": 201010
    },
    {
        "Company": "Shadman",
        "Contact": "Imran",
        "Phone": "345-888-1234",
        "Extension": "456",
        "Title": "Chef",
        "Address1": "21 Motgomery",
        "Address2": "Fifth Avenue",
        "City": "Jersey City",
        "State": "New Jersey",
        "ZipCode": 201010
    },
    {
        "Company": "Dunkin Donuts",
        "Contact": "Dicky",
        "Phone": "201-478-1234",
        "Extension": "456",
        "Title": "Moroni",
        "Address1": "26 Chambers Street",
        "Address2": "Fifth Avenue",
        "City": "New York City",
        "State": "NewYork",
        "ZipCode": 201010
    },
    {
        "Company": "Aunt Anne",
        "Contact": "Robert",
        "Phone": "201-677-1234",
        "Extension": "456",
        "Title": "Moroni",
        "Address1": "25 Wall Street",
        "Address2": "",
        "City": "Jersey City",
        "State": "New Jersey",
        "ZipCode": 201010
    },
    {
        "Company": "Mears Insurance",
        "Contact": "Thomson",
        "Phone": "201-888-1234",
        "Extension": "456",
        "Title": "Moroni",
        "Address1": "25 Wall Street",
        "Address2": "Fifth Avenue",
        "City": "New York City",
        "State": "NewYork",
        "ZipCode": 201010
    },
    {
        "Company": "Liberty Savings",
        "Contact": "Thomson",
        "Phone": "201-888-1234",
        "Extension": "456",
        "Title": "Moroni",
        "Address1": "25 Wall Street",
        "Address2": "Fifth Avenue",
        "City": "New York City",
        "State": "NewYork",
        "ZipCode": 201010
    },
    {
        "Company": "Twelth Dream",
        "Contact": "William Buckley",
        "Phone": "201-888-1234",
        "Extension": "456",
        "Title": "VP Of Sales",
        "Address1": "13 East 54 Street",
        "Address2": "Suite 300",
        "City": "Los Angeles",
        "State": "LA",
        "ZipCode": 201321
    },
    {
        "Company": "HAL Consulting Company",
        "Contact": "Lames Lawson",
        "Phone": "503-555-2232",
        "Extension": "456",
        "Title": "Man In Charge",
        "Address1": "2131 W Tiny Road",
        "Address2": "Fifth Avenue",
        "City": "New York City",
        "State": "NewYork",
        "ZipCode": 201010
    },
    {
        "Company": "Moroni",
        "Contact": "Thomson",
        "Phone": "201-888-1234",
        "Extension": "456",
        "Title": "Moroni",
        "Address1": "25 Wall Street",
        "Address2": "Fifth Avenue",
        "City": "New York City",
        "State": "NewYork",
        "ZipCode": 201010
    },
    {
        "Company": "DJango Consulting",
        "Contact": "Dan Minnick",
        "Phone": "201-888-4567",
        "Extension": "456",
        "Title": "Captain",
        "Address1": "1919 Tecoma Drive",
        "Address2": "",
        "City": "New York City",
        "State": "NewYork",
        "ZipCode": 201010
    },
    {
        "Company": "River Rat Tours",
        "Contact": "Rose Sayer",
        "Phone": "201-3333-1234",
        "Extension": "456",
        "Title": "Moroni",
        "Address1": "66 Flat Road",
        "Address2": "Suite 600",
        "City": "New York City",
        "State": "NewYork",
        "ZipCode": 201010
    },
    {
        "Company": "Boomes Artwork",
        "Contact": "Leonardo",
        "Phone": "201-888-1234",
        "Extension": "456",
        "Title": "Moroni",
        "Address1": "30 Wall Street",
        "Address2": "Seventh Avenue",
        "City": "New York City",
        "State": "NewYork",
        "ZipCode": 201010
    },
    {
        "Company": "Mercury Production",
        "Contact": "Thomson",
        "Phone": "201-888-1234",
        "Extension": "456",
        "Title": "Moroni",
        "Address1": "25 Wall Street",
        "Address2": "Fifth Avenue",
        "City": "New York City",
        "State": "NewYork",
        "ZipCode": 201010
    },
    {
        "Company": "Duke Industries",
        "Contact": "Peter",
        "Phone": "631-888-1234",
        "Extension": "456",
        "Title": "CEO",
        "Address1": "25 Wall Street",
        "Address2": "Fifth Avenue",
        "City": "New York City",
        "State": "NewYork",
        "ZipCode": 201010
    },
    {
        "Company": "Moroni",
        "Contact": "Thomson",
        "Phone": "201-888-1234",
        "Extension": "456",
        "Title": "Moroni",
        "Address1": "25 Wall Street",
        "Address2": "Fifth Avenue",
        "City": "New York City",
        "State": "NewYork",
        "ZipCode": 201010
    },
    {
        "Company": "Moroni",
        "Contact": "Thomson",
        "Phone": "201-888-1234",
        "Extension": "456",
        "Title": "Moroni",
        "Address1": "25 Wall Street",
        "Address2": "Fifth Avenue",
        "City": "New York City",
        "State": "NewYork",
        "ZipCode": 201010
    },
    {
        "Company": "Shadman",
        "Contact": "Imran",
        "Phone": "345-888-1234",
        "Extension": "456",
        "Title": "Chef",
        "Address1": "21 Motgomery",
        "Address2": "Fifth Avenue",
        "City": "Jersey City",
        "State": "New Jersey",
        "ZipCode": 201010
    },
    {
        "Company": "Dunkin Donuts",
        "Contact": "Dicky",
        "Phone": "201-478-1234",
        "Extension": "456",
        "Title": "Moroni",
        "Address1": "26 Chambers Street",
        "Address2": "Fifth Avenue",
        "City": "New York City",
        "State": "NewYork",
        "ZipCode": 201010
    },
    {
        "Company": "Aunt Anne",
        "Contact": "Robert",
        "Phone": "201-677-1234",
        "Extension": "456",
        "Title": "Moroni",
        "Address1": "25 Wall Street",
        "Address2": "",
        "City": "Jersey City",
        "State": "New Jersey",
        "ZipCode": 201010
    },
    {
        "Company": "Mears Insurance",
        "Contact": "Thomson",
        "Phone": "201-888-1234",
        "Extension": "456",
        "Title": "Moroni",
        "Address1": "25 Wall Street",
        "Address2": "Fifth Avenue",
        "City": "New York City",
        "State": "NewYork",
        "ZipCode": 201010
    },
    {
        "Company": "Liberty Savings",
        "Contact": "Thomson",
        "Phone": "201-888-1234",
        "Extension": "456",
        "Title": "Moroni",
        "Address1": "25 Wall Street",
        "Address2": "Fifth Avenue",
        "City": "New York City",
        "State": "NewYork",
        "ZipCode": 201010
    },
    {
        "Company": "Twelth Dream",
        "Contact": "William Buckley",
        "Phone": "201-888-1234",
        "Extension": "456",
        "Title": "VP Of Sales",
        "Address1": "13 East 54 Street",
        "Address2": "Suite 300",
        "City": "Los Angeles",
        "State": "LA",
        "ZipCode": 201321
    },
    {
        "Company": "HAL Consulting Company",
        "Contact": "Lames Lawson",
        "Phone": "503-555-2232",
        "Extension": "456",
        "Title": "Man In Charge",
        "Address1": "2131 W Tiny Road",
        "Address2": "Fifth Avenue",
        "City": "New York City",
        "State": "NewYork",
        "ZipCode": 201010
    },
    {
        "Company": "Moroni",
        "Contact": "Thomson",
        "Phone": "201-888-1234",
        "Extension": "456",
        "Title": "Moroni",
        "Address1": "25 Wall Street",
        "Address2": "Fifth Avenue",
        "City": "New York City",
        "State": "NewYork",
        "ZipCode": 201010
    },
    {
        "Company": "DJango Consulting",
        "Contact": "Dan Minnick",
        "Phone": "201-888-4567",
        "Extension": "456",
        "Title": "Captain",
        "Address1": "1919 Tecoma Drive",
        "Address2": "",
        "City": "New York City",
        "State": "NewYork",
        "ZipCode": 201010
    },
    {
        "Company": "River Rat Tours",
        "Contact": "Rose Sayer",
        "Phone": "201-3333-1234",
        "Extension": "456",
        "Title": "Moroni",
        "Address1": "66 Flat Road",
        "Address2": "Suite 600",
        "City": "New York City",
        "State": "NewYork",
        "ZipCode": 201010
    },
    {
        "Company": "Boomes Artwork",
        "Contact": "Leonardo",
        "Phone": "201-888-1234",
        "Extension": "456",
        "Title": "Moroni",
        "Address1": "30 Wall Street",
        "Address2": "Seventh Avenue",
        "City": "New York City",
        "State": "NewYork",
        "ZipCode": 201010
    },
    {
        "Company": "Mercury Production",
        "Contact": "Thomson",
        "Phone": "201-888-1234",
        "Extension": "456",
        "Title": "Moroni",
        "Address1": "25 Wall Street",
        "Address2": "Fifth Avenue",
        "City": "New York City",
        "State": "NewYork",
        "ZipCode": 201010
    },
    {
        "Company": "Duke Industries",
        "Contact": "Peter",
        "Phone": "631-888-1234",
        "Extension": "456",
        "Title": "CEO",
        "Address1": "25 Wall Street",
        "Address2": "Fifth Avenue",
        "City": "New York City",
        "State": "NewYork",
        "ZipCode": 201010
    },
    {
        "Company": "Moroni",
        "Contact": "Thomson",
        "Phone": "201-888-1234",
        "Extension": "456",
        "Title": "Moroni",
        "Address1": "25 Wall Street",
        "Address2": "Fifth Avenue",
        "City": "New York City",
        "State": "NewYork",
        "ZipCode": 201010
    },
    {
        "Company": "Moroni",
        "Contact": "Thomson",
        "Phone": "201-888-1234",
        "Extension": "456",
        "Title": "Moroni",
        "Address1": "25 Wall Street",
        "Address2": "Fifth Avenue",
        "City": "New York City",
        "State": "NewYork",
        "ZipCode": 201010
    },
    {
        "Company": "Shadman",
        "Contact": "Imran",
        "Phone": "345-888-1234",
        "Extension": "456",
        "Title": "Chef",
        "Address1": "21 Motgomery",
        "Address2": "Fifth Avenue",
        "City": "Jersey City",
        "State": "New Jersey",
        "ZipCode": 201010
    },
    {
        "Company": "Dunkin Donuts",
        "Contact": "Dicky",
        "Phone": "201-478-1234",
        "Extension": "456",
        "Title": "Moroni",
        "Address1": "26 Chambers Street",
        "Address2": "Fifth Avenue",
        "City": "New York City",
        "State": "NewYork",
        "ZipCode": 201010
    },
    {
        "Company": "Aunt Anne",
        "Contact": "Robert",
        "Phone": "201-677-1234",
        "Extension": "456",
        "Title": "Moroni",
        "Address1": "25 Wall Street",
        "Address2": "",
        "City": "Jersey City",
        "State": "New Jersey",
        "ZipCode": 201010
    },
    {
        "Company": "Mears Insurance",
        "Contact": "Thomson",
        "Phone": "201-888-1234",
        "Extension": "456",
        "Title": "Moroni",
        "Address1": "25 Wall Street",
        "Address2": "Fifth Avenue",
        "City": "New York City",
        "State": "NewYork",
        "ZipCode": 201010
    },
    {
        "Company": "Liberty Savings",
        "Contact": "Thomson",
        "Phone": "201-888-1234",
        "Extension": "456",
        "Title": "Moroni",
        "Address1": "25 Wall Street",
        "Address2": "Fifth Avenue",
        "City": "New York City",
        "State": "NewYork",
        "ZipCode": 201010
    },
    {
        "Company": "Twelth Dream",
        "Contact": "William Buckley",
        "Phone": "201-888-1234",
        "Extension": "456",
        "Title": "VP Of Sales",
        "Address1": "13 East 54 Street",
        "Address2": "Suite 300",
        "City": "Los Angeles",
        "State": "LA",
        "ZipCode": 201321
    },
    {
        "Company": "HAL Consulting Company",
        "Contact": "Lames Lawson",
        "Phone": "503-555-2232",
        "Extension": "456",
        "Title": "Man In Charge",
        "Address1": "2131 W Tiny Road",
        "Address2": "Fifth Avenue",
        "City": "New York City",
        "State": "NewYork",
        "ZipCode": 201010
    },
    {
        "Company": "Moroni",
        "Contact": "Thomson",
        "Phone": "201-888-1234",
        "Extension": "456",
        "Title": "Moroni",
        "Address1": "25 Wall Street",
        "Address2": "Fifth Avenue",
        "City": "New York City",
        "State": "NewYork",
        "ZipCode": 201010
    },
    {
        "Company": "DJango Consulting",
        "Contact": "Dan Minnick",
        "Phone": "201-888-4567",
        "Extension": "456",
        "Title": "Captain",
        "Address1": "1919 Tecoma Drive",
        "Address2": "",
        "City": "New York City",
        "State": "NewYork",
        "ZipCode": 201010
    },
    {
        "Company": "River Rat Tours",
        "Contact": "Rose Sayer",
        "Phone": "201-3333-1234",
        "Extension": "456",
        "Title": "Moroni",
        "Address1": "66 Flat Road",
        "Address2": "Suite 600",
        "City": "New York City",
        "State": "NewYork",
        "ZipCode": 201010
    },
    {
        "Company": "Boomes Artwork",
        "Contact": "Leonardo",
        "Phone": "201-888-1234",
        "Extension": "456",
        "Title": "Moroni",
        "Address1": "30 Wall Street",
        "Address2": "Seventh Avenue",
        "City": "New York City",
        "State": "NewYork",
        "ZipCode": 201010
    },
    {
        "Company": "Mercury Production",
        "Contact": "Thomson",
        "Phone": "201-888-1234",
        "Extension": "456",
        "Title": "Moroni",
        "Address1": "25 Wall Street",
        "Address2": "Fifth Avenue",
        "City": "New York City",
        "State": "NewYork",
        "ZipCode": 201010
    },
    {
        "Company": "Duke Industries",
        "Contact": "Peter",
        "Phone": "631-888-1234",
        "Extension": "456",
        "Title": "CEO",
        "Address1": "25 Wall Street",
        "Address2": "Fifth Avenue",
        "City": "New York City",
        "State": "NewYork",
        "ZipCode": 201010
    },
    {
        "Company": "Moroni",
        "Contact": "Thomson",
        "Phone": "201-888-1234",
        "Extension": "456",
        "Title": "Moroni",
        "Address1": "25 Wall Street",
        "Address2": "Fifth Avenue",
        "City": "New York City",
        "State": "NewYork",
        "ZipCode": 201010
    },
    {
        "Company": "Moroni",
        "Contact": "Thomson",
        "Phone": "201-888-1234",
        "Extension": "456",
        "Title": "Moroni",
        "Address1": "25 Wall Street",
        "Address2": "Fifth Avenue",
        "City": "New York City",
        "State": "NewYork",
        "ZipCode": 201010
    },
    {
        "Company": "Shadman",
        "Contact": "Imran",
        "Phone": "345-888-1234",
        "Extension": "456",
        "Title": "Chef",
        "Address1": "21 Motgomery",
        "Address2": "Fifth Avenue",
        "City": "Jersey City",
        "State": "New Jersey",
        "ZipCode": 201010
    },
    {
        "Company": "Dunkin Donuts",
        "Contact": "Dicky",
        "Phone": "201-478-1234",
        "Extension": "456",
        "Title": "Moroni",
        "Address1": "26 Chambers Street",
        "Address2": "Fifth Avenue",
        "City": "New York City",
        "State": "NewYork",
        "ZipCode": 201010
    },
    {
        "Company": "Aunt Anne",
        "Contact": "Robert",
        "Phone": "201-677-1234",
        "Extension": "456",
        "Title": "Moroni",
        "Address1": "25 Wall Street",
        "Address2": "",
        "City": "Jersey City",
        "State": "New Jersey",
        "ZipCode": 201010
    },
    {
        "Company": "Mears Insurance",
        "Contact": "Thomson",
        "Phone": "201-888-1234",
        "Extension": "456",
        "Title": "Moroni",
        "Address1": "25 Wall Street",
        "Address2": "Fifth Avenue",
        "City": "New York City",
        "State": "NewYork",
        "ZipCode": 201010
    },
    {
        "Company": "Liberty Savings",
        "Contact": "Thomson",
        "Phone": "201-888-1234",
        "Extension": "456",
        "Title": "Moroni",
        "Address1": "25 Wall Street",
        "Address2": "Fifth Avenue",
        "City": "New York City",
        "State": "NewYork",
        "ZipCode": 201010
    },
    {
        "Company": "Twelth Dream",
        "Contact": "William Buckley",
        "Phone": "201-888-1234",
        "Extension": "456",
        "Title": "VP Of Sales",
        "Address1": "13 East 54 Street",
        "Address2": "Suite 300",
        "City": "Los Angeles",
        "State": "LA",
        "ZipCode": 201321
    },
    {
        "Company": "HAL Consulting Company",
        "Contact": "Lames Lawson",
        "Phone": "503-555-2232",
        "Extension": "456",
        "Title": "Man In Charge",
        "Address1": "2131 W Tiny Road",
        "Address2": "Fifth Avenue",
        "City": "New York City",
        "State": "NewYork",
        "ZipCode": 201010
    },
    {
        "Company": "Moroni",
        "Contact": "Thomson",
        "Phone": "201-888-1234",
        "Extension": "456",
        "Title": "Moroni",
        "Address1": "25 Wall Street",
        "Address2": "Fifth Avenue",
        "City": "New York City",
        "State": "NewYork",
        "ZipCode": 201010
    },
    {
        "Company": "DJango Consulting",
        "Contact": "Dan Minnick",
        "Phone": "201-888-4567",
        "Extension": "456",
        "Title": "Captain",
        "Address1": "1919 Tecoma Drive",
        "Address2": "",
        "City": "New York City",
        "State": "NewYork",
        "ZipCode": 201010
    },
    {
        "Company": "River Rat Tours",
        "Contact": "Rose Sayer",
        "Phone": "201-3333-1234",
        "Extension": "456",
        "Title": "Moroni",
        "Address1": "66 Flat Road",
        "Address2": "Suite 600",
        "City": "New York City",
        "State": "NewYork",
        "ZipCode": 201010
    },
    {
        "Company": "Boomes Artwork",
        "Contact": "Leonardo",
        "Phone": "201-888-1234",
        "Extension": "456",
        "Title": "Moroni",
        "Address1": "30 Wall Street",
        "Address2": "Seventh Avenue",
        "City": "New York City",
        "State": "NewYork",
        "ZipCode": 201010
    },
    {
        "Company": "Mercury Production",
        "Contact": "Thomson",
        "Phone": "201-888-1234",
        "Extension": "456",
        "Title": "Moroni",
        "Address1": "25 Wall Street",
        "Address2": "Fifth Avenue",
        "City": "New York City",
        "State": "NewYork",
        "ZipCode": 201010
    },
    {
        "Company": "Duke Industries",
        "Contact": "Peter",
        "Phone": "631-888-1234",
        "Extension": "456",
        "Title": "CEO",
        "Address1": "25 Wall Street",
        "Address2": "Fifth Avenue",
        "City": "New York City",
        "State": "NewYork",
        "ZipCode": 201010
    },
    {
        "Company": "Moroni",
        "Contact": "Thomson",
        "Phone": "201-888-1234",
        "Extension": "456",
        "Title": "Moroni",
        "Address1": "25 Wall Street",
        "Address2": "Fifth Avenue",
        "City": "New York City",
        "State": "NewYork",
        "ZipCode": 201010
    },
    {
        "Company": "Moroni",
        "Contact": "Thomson",
        "Phone": "201-888-1234",
        "Extension": "456",
        "Title": "Moroni",
        "Address1": "25 Wall Street",
        "Address2": "Fifth Avenue",
        "City": "New York City",
        "State": "NewYork",
        "ZipCode": 201010
    },
    {
        "Company": "Shadman",
        "Contact": "Imran",
        "Phone": "345-888-1234",
        "Extension": "456",
        "Title": "Chef",
        "Address1": "21 Motgomery",
        "Address2": "Fifth Avenue",
        "City": "Jersey City",
        "State": "New Jersey",
        "ZipCode": 201010
    },
    {
        "Company": "Dunkin Donuts",
        "Contact": "Dicky",
        "Phone": "201-478-1234",
        "Extension": "456",
        "Title": "Moroni",
        "Address1": "26 Chambers Street",
        "Address2": "Fifth Avenue",
        "City": "New York City",
        "State": "NewYork",
        "ZipCode": 201010
    },
    {
        "Company": "Aunt Anne",
        "Contact": "Robert",
        "Phone": "201-677-1234",
        "Extension": "456",
        "Title": "Moroni",
        "Address1": "25 Wall Street",
        "Address2": "",
        "City": "Jersey City",
        "State": "New Jersey",
        "ZipCode": 201010
    },
    {
        "Company": "Mears Insurance",
        "Contact": "Thomson",
        "Phone": "201-888-1234",
        "Extension": "456",
        "Title": "Moroni",
        "Address1": "25 Wall Street",
        "Address2": "Fifth Avenue",
        "City": "New York City",
        "State": "NewYork",
        "ZipCode": 201010
    },
    {
        "Company": "Liberty Savings",
        "Contact": "Thomson",
        "Phone": "201-888-1234",
        "Extension": "456",
        "Title": "Moroni",
        "Address1": "25 Wall Street",
        "Address2": "Fifth Avenue",
        "City": "New York City",
        "State": "NewYork",
        "ZipCode": 201010
    },
    {
        "Company": "Twelth Dream",
        "Contact": "William Buckley",
        "Phone": "201-888-1234",
        "Extension": "456",
        "Title": "VP Of Sales",
        "Address1": "13 East 54 Street",
        "Address2": "Suite 300",
        "City": "Los Angeles",
        "State": "LA",
        "ZipCode": 201321
    },
    {
        "Company": "HAL Consulting Company",
        "Contact": "Lames Lawson",
        "Phone": "503-555-2232",
        "Extension": "456",
        "Title": "Man In Charge",
        "Address1": "2131 W Tiny Road",
        "Address2": "Fifth Avenue",
        "City": "New York City",
        "State": "NewYork",
        "ZipCode": 201010
    }
]